STARLINK-36090          
1 66855U 25281H   25354.16667823 -.01264099  00000+0 -90087-2 0  9994
2 66855  43.0009  76.8627 0001401 275.2803 111.1135 15.75419858  2465
STARLINK-36072          
1 66856U 25281J   25354.16667823 -.01262704  00000+0 -89988-2 0  9994
2 66856  43.0008  76.8576 0001408 271.9275 116.3855 15.75416966  2587
STARLINK-36083          
1 66857U 25281K   25354.16667823 -.01267218  00000+0 -90319-2 0  9990
2 66857  43.0007  76.8528 0001422 275.3350 114.8883 15.75423503  2581
STARLINK-35118          
1 66858U 25281L   25354.16667823 -.01269015  00000+0 -90460-2 0  9995
2 66858  43.0007  76.8483 0001516 272.5199 119.6221 15.75422928  2372
STARLINK-35646          
1 66859U 25281M   25354.16667823 -.01271650  00000+0 -90669-2 0  9995
2 66859  43.0008  76.8430 0001467 276.3337 117.7271 15.75423648  2584
STARLINK-35987          
1 66860U 25281N   25354.16667823 -.01270107  00000+0 -90542-2 0  9993
2 66860  43.0009  76.8192 0001513 268.4103 135.2339 15.75424281  2592
STARLINK-35991          
1 66861U 25281P   25354.16667823 -.01270855  00000+0 -90599-2 0  9996
2 66861  43.0009  76.8337 0001548 271.7069 126.1892 15.75424386  2588
STARLINK-35974          
1 66862U 25281Q   25354.16667823 -.01264546  00000+0 -90122-2 0  9999
2 66862  43.0009  76.8387 0001491 275.6784 120.3018 15.75419242  2488
STARLINK-36134          
1 66863U 25281R   25354.16667823 -.01268816  00000+0 -90436-2 0  9992
2 66863  43.0009  76.8292 0001587 280.0047 119.8063 15.75424446  2588
STARLINK-36070          
1 66864U 25281S   25354.16667823 -.01270724  00000+0 -90590-2 0  9995
2 66864  43.0009  76.8238 0001312 281.5697 120.1551 15.75426319  2625
STARLINK-36117          
1 66865U 25281T   25354.16667823 -.01269162  00000+0 -90467-2 0  9993
2 66865  43.0009  76.8148 0001569 268.2185 137.3439 15.75423674  2596
STARLINK-36126          
1 66866U 25281U   25354.16667823 -.01271361  00000+0 -90644-2 0  9995
2 66866  43.0009  76.8095 0001351 271.8265 135.6537 15.75425081  2624
