CCSDS_OMM_VERS = 2.0
CREATION_DATE  = 
ORIGINATOR     = 

OBJECT_NAME    = STARLINK-36090
OBJECT_ID      = 2025-281H
CENTER_NAME    = EARTH
REF_FRAME      = TEME
TIME_SYSTEM    = UTC
MEAN_ELEMENT_THEORY = SGP/SGP4

EPOCH          = 2025-12-20T04:00:00.999072
MEAN_MOTION    = 15.75419858
ECCENTRICITY   = .0001401
INCLINATION    = 43.0009
RA_OF_ASC_NODE = 76.8627
ARG_OF_PERICENTER = 275.2803
MEAN_ANOMALY   = 111.1135

EPHEMERIS_TYPE = 0
CLASSIFICATION_TYPE = U
NORAD_CAT_ID   = 66855
ELEMENT_SET_NO = 999
REV_AT_EPOCH   = 246
BSTAR          = -.90087E-2
MEAN_MOTION_DOT = -.1264099E-1
MEAN_MOTION_DDOT = 0

CCSDS_OMM_VERS = 2.0
CREATION_DATE  = 
ORIGINATOR     = 

OBJECT_NAME    = STARLINK-36072
OBJECT_ID      = 2025-281J
CENTER_NAME    = EARTH
REF_FRAME      = TEME
TIME_SYSTEM    = UTC
MEAN_ELEMENT_THEORY = SGP/SGP4

EPOCH          = 2025-12-20T04:00:00.999072
MEAN_MOTION    = 15.75416966
ECCENTRICITY   = .0001408
INCLINATION    = 43.0008
RA_OF_ASC_NODE = 76.8576
ARG_OF_PERICENTER = 271.9275
MEAN_ANOMALY   = 116.3855

EPHEMERIS_TYPE = 0
CLASSIFICATION_TYPE = U
NORAD_CAT_ID   = 66856
ELEMENT_SET_NO = 999
REV_AT_EPOCH   = 258
BSTAR          = -.89988E-2
MEAN_MOTION_DOT = -.1262704E-1
MEAN_MOTION_DDOT = 0

CCSDS_OMM_VERS = 2.0
CREATION_DATE  = 
ORIGINATOR     = 

OBJECT_NAME    = STARLINK-36083
OBJECT_ID      = 2025-281K
CENTER_NAME    = EARTH
REF_FRAME      = TEME
TIME_SYSTEM    = UTC
MEAN_ELEMENT_THEORY = SGP/SGP4

EPOCH          = 2025-12-20T04:00:00.999072
MEAN_MOTION    = 15.75423503
ECCENTRICITY   = .0001422
INCLINATION    = 43.0007
RA_OF_ASC_NODE = 76.8528
ARG_OF_PERICENTER = 275.3350
MEAN_ANOMALY   = 114.8883

EPHEMERIS_TYPE = 0
CLASSIFICATION_TYPE = U
NORAD_CAT_ID   = 66857
ELEMENT_SET_NO = 999
REV_AT_EPOCH   = 258
BSTAR          = -.90319E-2
MEAN_MOTION_DOT = -.1267218E-1
MEAN_MOTION_DDOT = 0

CCSDS_OMM_VERS = 2.0
CREATION_DATE  = 
ORIGINATOR     = 

OBJECT_NAME    = STARLINK-35118
OBJECT_ID      = 2025-281L
CENTER_NAME    = EARTH
REF_FRAME      = TEME
TIME_SYSTEM    = UTC
MEAN_ELEMENT_THEORY = SGP/SGP4

EPOCH          = 2025-12-20T04:00:00.999072
MEAN_MOTION    = 15.75422928
ECCENTRICITY   = .0001516
INCLINATION    = 43.0007
RA_OF_ASC_NODE = 76.8483
ARG_OF_PERICENTER = 272.5199
MEAN_ANOMALY   = 119.6221

EPHEMERIS_TYPE = 0
CLASSIFICATION_TYPE = U
NORAD_CAT_ID   = 66858
ELEMENT_SET_NO = 999
REV_AT_EPOCH   = 237
BSTAR          = -.9046E-2
MEAN_MOTION_DOT = -.1269015E-1
MEAN_MOTION_DDOT = 0

CCSDS_OMM_VERS = 2.0
CREATION_DATE  = 
ORIGINATOR     = 

OBJECT_NAME    = STARLINK-35646
OBJECT_ID      = 2025-281M
CENTER_NAME    = EARTH
REF_FRAME      = TEME
TIME_SYSTEM    = UTC
MEAN_ELEMENT_THEORY = SGP/SGP4

EPOCH          = 2025-12-20T04:00:00.999072
MEAN_MOTION    = 15.75423648
ECCENTRICITY   = .0001467
INCLINATION    = 43.0008
RA_OF_ASC_NODE = 76.8430
ARG_OF_PERICENTER = 276.3337
MEAN_ANOMALY   = 117.7271

EPHEMERIS_TYPE = 0
CLASSIFICATION_TYPE = U
NORAD_CAT_ID   = 66859
ELEMENT_SET_NO = 999
REV_AT_EPOCH   = 258
BSTAR          = -.90669E-2
MEAN_MOTION_DOT = -.127165E-1
MEAN_MOTION_DDOT = 0

CCSDS_OMM_VERS = 2.0
CREATION_DATE  = 
ORIGINATOR     = 

OBJECT_NAME    = STARLINK-35987
OBJECT_ID      = 2025-281N
CENTER_NAME    = EARTH
REF_FRAME      = TEME
TIME_SYSTEM    = UTC
MEAN_ELEMENT_THEORY = SGP/SGP4

EPOCH          = 2025-12-20T04:00:00.999072
MEAN_MOTION    = 15.75424281
ECCENTRICITY   = .0001513
INCLINATION    = 43.0009
RA_OF_ASC_NODE = 76.8192
ARG_OF_PERICENTER = 268.4103
MEAN_ANOMALY   = 135.2339

EPHEMERIS_TYPE = 0
CLASSIFICATION_TYPE = U
NORAD_CAT_ID   = 66860
ELEMENT_SET_NO = 999
REV_AT_EPOCH   = 259
BSTAR          = -.90542E-2
MEAN_MOTION_DOT = -.1270107E-1
MEAN_MOTION_DDOT = 0

CCSDS_OMM_VERS = 2.0
CREATION_DATE  = 
ORIGINATOR     = 

OBJECT_NAME    = STARLINK-35991
OBJECT_ID      = 2025-281P
CENTER_NAME    = EARTH
REF_FRAME      = TEME
TIME_SYSTEM    = UTC
MEAN_ELEMENT_THEORY = SGP/SGP4

EPOCH          = 2025-12-20T04:00:00.999072
MEAN_MOTION    = 15.75424386
ECCENTRICITY   = .0001548
INCLINATION    = 43.0009
RA_OF_ASC_NODE = 76.8337
ARG_OF_PERICENTER = 271.7069
MEAN_ANOMALY   = 126.1892

EPHEMERIS_TYPE = 0
CLASSIFICATION_TYPE = U
NORAD_CAT_ID   = 66861
ELEMENT_SET_NO = 999
REV_AT_EPOCH   = 258
BSTAR          = -.90599E-2
MEAN_MOTION_DOT = -.1270855E-1
MEAN_MOTION_DDOT = 0

CCSDS_OMM_VERS = 2.0
CREATION_DATE  = 
ORIGINATOR     = 

OBJECT_NAME    = STARLINK-35974
OBJECT_ID      = 2025-281Q
CENTER_NAME    = EARTH
REF_FRAME      = TEME
TIME_SYSTEM    = UTC
MEAN_ELEMENT_THEORY = SGP/SGP4

EPOCH          = 2025-12-20T04:00:00.999072
MEAN_MOTION    = 15.75419242
ECCENTRICITY   = .0001491
INCLINATION    = 43.0009
RA_OF_ASC_NODE = 76.8387
ARG_OF_PERICENTER = 275.6784
MEAN_ANOMALY   = 120.3018

EPHEMERIS_TYPE = 0
CLASSIFICATION_TYPE = U
NORAD_CAT_ID   = 66862
ELEMENT_SET_NO = 999
REV_AT_EPOCH   = 248
BSTAR          = -.90122E-2
MEAN_MOTION_DOT = -.1264546E-1
MEAN_MOTION_DDOT = 0

CCSDS_OMM_VERS = 2.0
CREATION_DATE  = 
ORIGINATOR     = 

OBJECT_NAME    = STARLINK-36134
OBJECT_ID      = 2025-281R
CENTER_NAME    = EARTH
REF_FRAME      = TEME
TIME_SYSTEM    = UTC
MEAN_ELEMENT_THEORY = SGP/SGP4

EPOCH          = 2025-12-20T04:00:00.999072
MEAN_MOTION    = 15.75424446
ECCENTRICITY   = .0001587
INCLINATION    = 43.0009
RA_OF_ASC_NODE = 76.8292
ARG_OF_PERICENTER = 280.0047
MEAN_ANOMALY   = 119.8063

EPHEMERIS_TYPE = 0
CLASSIFICATION_TYPE = U
NORAD_CAT_ID   = 66863
ELEMENT_SET_NO = 999
REV_AT_EPOCH   = 258
BSTAR          = -.90436E-2
MEAN_MOTION_DOT = -.1268816E-1
MEAN_MOTION_DDOT = 0

CCSDS_OMM_VERS = 2.0
CREATION_DATE  = 
ORIGINATOR     = 

OBJECT_NAME    = STARLINK-36070
OBJECT_ID      = 2025-281S
CENTER_NAME    = EARTH
REF_FRAME      = TEME
TIME_SYSTEM    = UTC
MEAN_ELEMENT_THEORY = SGP/SGP4

EPOCH          = 2025-12-20T04:00:00.999072
MEAN_MOTION    = 15.75426319
ECCENTRICITY   = .0001312
INCLINATION    = 43.0009
RA_OF_ASC_NODE = 76.8238
ARG_OF_PERICENTER = 281.5697
MEAN_ANOMALY   = 120.1551

EPHEMERIS_TYPE = 0
CLASSIFICATION_TYPE = U
NORAD_CAT_ID   = 66864
ELEMENT_SET_NO = 999
REV_AT_EPOCH   = 262
BSTAR          = -.9059E-2
MEAN_MOTION_DOT = -.1270724E-1
MEAN_MOTION_DDOT = 0

CCSDS_OMM_VERS = 2.0
CREATION_DATE  = 
ORIGINATOR     = 

OBJECT_NAME    = STARLINK-36117
OBJECT_ID      = 2025-281T
CENTER_NAME    = EARTH
REF_FRAME      = TEME
TIME_SYSTEM    = UTC
MEAN_ELEMENT_THEORY = SGP/SGP4

EPOCH          = 2025-12-20T04:00:00.999072
MEAN_MOTION    = 15.75423674
ECCENTRICITY   = .0001569
INCLINATION    = 43.0009
RA_OF_ASC_NODE = 76.8148
ARG_OF_PERICENTER = 268.2185
MEAN_ANOMALY   = 137.3439

EPHEMERIS_TYPE = 0
CLASSIFICATION_TYPE = U
NORAD_CAT_ID   = 66865
ELEMENT_SET_NO = 999
REV_AT_EPOCH   = 259
BSTAR          = -.90467E-2
MEAN_MOTION_DOT = -.1269162E-1
MEAN_MOTION_DDOT = 0

CCSDS_OMM_VERS = 2.0
CREATION_DATE  = 
ORIGINATOR     = 

OBJECT_NAME    = STARLINK-36126
OBJECT_ID      = 2025-281U
CENTER_NAME    = EARTH
REF_FRAME      = TEME
TIME_SYSTEM    = UTC
MEAN_ELEMENT_THEORY = SGP/SGP4

EPOCH          = 2025-12-20T04:00:00.999072
MEAN_MOTION    = 15.75425081
ECCENTRICITY   = .0001351
INCLINATION    = 43.0009
RA_OF_ASC_NODE = 76.8095
ARG_OF_PERICENTER = 271.8265
MEAN_ANOMALY   = 135.6537

EPHEMERIS_TYPE = 0
CLASSIFICATION_TYPE = U
NORAD_CAT_ID   = 66866
ELEMENT_SET_NO = 999
REV_AT_EPOCH   = 262
BSTAR          = -.90644E-2
MEAN_MOTION_DOT = -.1271361E-1
MEAN_MOTION_DDOT = 0

